[{"OBJECT_NAME":"STARLINK-2094","OBJECT_ID":"2021-005AC","EPOCH":"2026-03-09T22:00:01.999584","MEAN_MOTION":15.1057612,"ECCENTRICITY":0.00015618,"INCLINATION":53.0714,"RA_OF_ASC_NODE":60.5643,"ARG_OF_PERICENTER":87.5048,"MEAN_ANOMALY":287.6905,"EPHEMERIS_TYPE":0,"CLASSIFICATION_TYPE":"U","NORAD_CAT_ID":47375,"ELEMENT_SET_NO":999,"REV_AT_EPOCH":572,"BSTAR":0.052663028,"MEAN_MOTION_DOT":0.00941976,"MEAN_MOTION_DDOT":0},{"OBJECT_NAME":"NOAA 16 DEB","OBJECT_ID":"2000-055RD","EPOCH":"2026-03-08T14:49:38.721792","MEAN_MOTION":15.14089507,"ECCENTRICITY":0.00084032,"INCLINATION":98.9038,"RA_OF_ASC_NODE":208.7699,"ARG_OF_PERICENTER":346.4163,"MEAN_ANOMALY":13.6837,"EPHEMERIS_TYPE":0,"CLASSIFICATION_TYPE":"U","NORAD_CAT_ID":42361,"ELEMENT_SET_NO":999,"REV_AT_EPOCH":52359,"BSTAR":0.022314151,"MEAN_MOTION_DOT":0.0043103,"MEAN_MOTION_DDOT":0}]
